{"type": "FeatureCollection", "features": [ {"type": "Feature", "properties": {"norad_id": 35614, "name": "COSMOS 2251 DEB", "group": "cosmos-2251-debris", "lat": 73.91053480557127, "lon": 81.6685041109857, "alt_km": 684.7995076556626, "timestamp": "2025-12-02T08:59:33.111197+00:00", "meta": {"OBJECT_NAME": "COSMOS 2251 DEB", "OBJECT_ID": "1993-036ANH", "EPOCH": "2025-11-28T17:49:08.774688", "MEAN_MOTION": 14.66804035, "ECCENTRICITY": 0.0076739, "INCLINATION": 73.9598, "RA_OF_ASC_NODE": 354.6008, "ARG_OF_PERICENTER": 212.3283, "MEAN_ANOMALY": 147.3173, "EPHEMERIS_TYPE": 0, "CLASSIFICATION_TYPE": "U", "NORAD_CAT_ID": 35614, "ELEMENT_SET_NO": 999, "REV_AT_EPOCH": 87524, "BSTAR": 0.00086232481, "MEAN_MOTION_DOT": 4.997e-05, "MEAN_MOTION_DDOT": 0}, "tle": {"line1": "1 35614U 93036ANH 25332.74246267  .00004997  00000+0  86232-3 0  9995", "line2": "2 35614  73.9598 354.6008 0076739 212.3283 147.3173 14.66804035875240"}}, "geometry": {"type": "Point", "coordinates": [81.6685041109857, 73.91053480557127]}}, {"type": "Feature", "properties": {"norad_id": 35645, "name": "COSMOS 2251 DEB", "group": "cosmos-2251-debris", "lat": -66.40779953139449, "lon": -31.668382962446657, "alt_km": 699.8810294317318, "timestamp": "2025-12-02T08:59:33.111207+00:00", "meta": {"OBJECT_NAME": "COSMOS 2251 DEB", "OBJECT_ID": "1993-036ANL", "EPOCH": "2025-12-01T15:12:41.071680", "MEAN_MOTION": 14.45293228, "ECCENTRICITY": 0.0069402, "INCLINATION": 73.964, "RA_OF_ASC_NODE": 108.5275, "ARG_OF_PERICENTER": 267.6682, "MEAN_ANOMALY": 91.6528, "EPHEMERIS_TYPE": 0, "CLASSIFICATION_TYPE": "U", "NORAD_CAT_ID": 35645, "ELEMENT_SET_NO": 999, "REV_AT_EPOCH": 86611, "BSTAR": 0.0020375, "MEAN_MOTION_DOT": 7.347e-05, "MEAN_MOTION_DDOT": 0}, "tle": {"line1": "1 35645U 93036ANL 25335.63380870  .00007347  00000+0  20375-2 0  9996", "line2": "2 35645  73.9640 108.5275 0069402 267.6682  91.6528 14.45293228866113"}}, "geometry": {"type": "Point", "coordinates": [-31.668382962446657, -66.40779953139449]}}, {"type": "Feature", "properties": {"norad_id": 35646, "name": "COSMOS 2251 DEB", "group": "cosmos-2251-debris", "lat": 62.87238934429379, "lon": -141.909315979453, "alt_km": 981.4171953101768, "timestamp": "2025-12-02T08:59:33.111217+00:00", "meta": {"OBJECT_NAME": "COSMOS 2251 DEB", "OBJECT_ID": "1993-036ANM", "EPOCH": "2025-11-30T17:47:23.483328", "MEAN_MOTION": 13.40777703, "ECCENTRICITY": 0.04579187, "INCLINATION": 73.8717, "RA_OF_ASC_NODE": 75.0665, "ARG_OF_PERICENTER": 187.2005, "MEAN_ANOMALY": 328.3577, "EPHEMERIS_TYPE": 0, "CLASSIFICATION_TYPE": "U", "NORAD_CAT_ID": 35646, "ELEMENT_SET_NO": 999, "REV_AT_EPOCH": 81697, "BSTAR": 0.001266768, "MEAN_MOTION_DOT": 1.273e-05, "MEAN_MOTION_DDOT": 0}, "tle": {"line1": "1 35646U 93036ANM 25334.74124402  .00001273  00000+0  12668-2 0  9993", "line2": "2 35646  73.8717  75.0665 0457918 187.2005 328.3577 13.40777703816970"}}, "geometry": {"type": "Point", "coordinates": [-141.909315979453, 62.87238934429379]}}, {"type": "Feature", "properties": {"norad_id": 35647, "name": "COSMOS 2251 DEB", "group": "cosmos-2251-debris", "lat": 31.725972121954356, "lon": -35.94946603435236, "alt_km": 715.1211408681702, "timestamp": "2025-12-02T08:59:33.111227+00:00", "meta": {"OBJECT_NAME": "COSMOS 2251 DEB", "OBJECT_ID": "1993-036ANN", "EPOCH": "2025-11-30T05:16:45.601536", "MEAN_MOTION": 14.43522503, "ECCENTRICITY": 0.00448795, "INCLINATION": 74.0228, "RA_OF_ASC_NODE": 317.854, "ARG_OF_PERICENTER": 60.3211, "MEAN_ANOMALY": 300.2402, "EPHEMERIS_TYPE": 0, "CLASSIFICATION_TYPE": "U", "NORAD_CAT_ID": 35647, "ELEMENT_SET_NO": 999, "REV_AT_EPOCH": 67483, "BSTAR": 0.00078586372, "MEAN_MOTION_DOT": 2.667e-05, "MEAN_MOTION_DDOT": 0}, "tle": {"line1": "1 35647U 93036ANN 25334.21997224  .00002667  00000+0  78586-3 0  9996", "line2": "2 35647  74.0228 317.8540 0044879  60.3211 300.2402 14.43522503674831"}}, "geometry": {"type": "Point", "coordinates": [-35.94946603435236, 31.725972121954356]}}, {"type": "Feature", "properties": {"norad_id": 35650, "name": "COSMOS 2251 DEB", "group": "cosmos-2251-debris", "lat": 18.25510544498692, "lon": -146.0213142182278, "alt_km": 615.3652818759138, "timestamp": "2025-12-02T08:59:33.111238+00:00", "meta": {"OBJECT_NAME": "COSMOS 2251 DEB", "OBJECT_ID": "1993-036ANR", "EPOCH": "2025-12-01T04:53:35.752992", "MEAN_MOTION": 14.831378, "ECCENTRICITY": 0.00145, "INCLINATION": 74.0471, "RA_OF_ASC_NODE": 41.7078, "ARG_OF_PERICENTER": 96.3745, "MEAN_ANOMALY": 295.6249, "EPHEMERIS_TYPE": 0, "CLASSIFICATION_TYPE": "U", "NORAD_CAT_ID": 35650, "ELEMENT_SET_NO": 999, "REV_AT_EPOCH": 87463, "BSTAR": 0.0022155, "MEAN_MOTION_DOT": 0.00018115, "MEAN_MOTION_DDOT": 0}, "tle": {"line1": "1 35650U 93036ANR 25335.20388603  .00018115  00000+0  22155-2 0  9990", "line2": "2 35650  74.0471  41.7078 0014500  96.3745 295.6249 14.83137800874635"}}, "geometry": {"type": "Point", "coordinates": [-146.0213142182278, 18.25510544498692]}}, {"type": "Feature", "properties": {"norad_id": 35660, "name": "COSMOS 2251 DEB", "group": "cosmos-2251-debris", "lat": -73.72638507983302, "lon": 51.310982754098234, "alt_km": 722.5304138703359, "timestamp": "2025-12-02T08:59:33.111261+00:00", "meta": {"OBJECT_NAME": "COSMOS 2251 DEB", "OBJECT_ID": "1993-036APB", "EPOCH": "2025-11-30T04:59:11.152608", "MEAN_MOTION": 14.49858309, "ECCENTRICITY": 0.00181724, "INCLINATION": 74.0397, "RA_OF_ASC_NODE": 156.7551, "ARG_OF_PERICENTER": 306.9367, "MEAN_ANOMALY": 174.3672, "EPHEMERIS_TYPE": 0, "CLASSIFICATION_TYPE": "U", "NORAD_CAT_ID": 35660, "ELEMENT_SET_NO": 999, "REV_AT_EPOCH": 65689, "BSTAR": 0.00042239347, "MEAN_MOTION_DOT": 1.607e-05, "MEAN_MOTION_DDOT": 0}, "tle": {"line1": "1 35660U 93036APB 25334.20776797  .00001607  00000+0  42239-3 0  9999", "line2": "2 35660  74.0397 156.7551 0018172 306.9367 174.3672 14.49858309656890"}}, "geometry": {"type": "Point", "coordinates": [51.310982754098234, -73.72638507983302]}}, {"type": "Feature", "properties": {"norad_id": 35661, "name": "COSMOS 2251 DEB", "group": "cosmos-2251-debris", "lat": -16.111106755491022, "lon": 95.6347851138029, "alt_km": 659.1036422229354, "timestamp": "2025-12-02T08:59:33.111274+00:00", "meta": {"OBJECT_NAME": "COSMOS 2251 DEB", "OBJECT_ID": "1993-036APC", "EPOCH": "2025-12-01T15:17:54.099744", "MEAN_MOTION": 14.86228294, "ECCENTRICITY": 0.00894294, "INCLINATION": 74.0123, "RA_OF_ASC_NODE": 101.8533, "ARG_OF_PERICENTER": 208.6797, "MEAN_ANOMALY": 150.945, "EPHEMERIS_TYPE": 0, "CLASSIFICATION_TYPE": "U", "NORAD_CAT_ID": 35661, "ELEMENT_SET_NO": 999, "REV_AT_EPOCH": 87703, "BSTAR": 0.0012388204, "MEAN_MOTION_DOT": 0.00011691, "MEAN_MOTION_DDOT": 0}, "tle": {"line1": "1 35661U 93036APC 25335.63743171  .00011691  00000+0  12388-2 0  9993", "line2": "2 35661  74.0123 101.8533 0089429 208.6797 150.9450 14.86228294877037"}}, "geometry": {"type": "Point", "coordinates": [95.6347851138029, -16.111106755491022]}}, {"type": "Feature", "properties": {"norad_id": 35663, "name": "COSMOS 2251 DEB", "group": "cosmos-2251-debris", "lat": -66.66442842218856, "lon": 103.00584757421396, "alt_km": 681.1713163047734, "timestamp": "2025-12-02T08:59:33.111284+00:00", "meta": {"OBJECT_NAME": "COSMOS 2251 DEB", "OBJECT_ID": "1993-036APE", "EPOCH": "2025-11-30T11:26:45.384288", "MEAN_MOTION": 14.65332391, "ECCENTRICITY": 0.00074535, "INCLINATION": 74.0171, "RA_OF_ASC_NODE": 148.2949, "ARG_OF_PERICENTER": 219.2944, "MEAN_ANOMALY": 140.7685, "EPHEMERIS_TYPE": 0, "CLASSIFICATION_TYPE": "U", "NORAD_CAT_ID": 35663, "ELEMENT_SET_NO": 999, "REV_AT_EPOCH": 73202, "BSTAR": 0.0015821861, "MEAN_MOTION_DOT": 8.525e-05, "MEAN_MOTION_DDOT": 0}, "tle": {"line1": "1 35663U 93036APE 25334.47691417  .00008525  00000+0  15822-2 0  9999", "line2": "2 35663  74.0171 148.2949 0007453 219.2944 140.7685 14.65332391732024"}}, "geometry": {"type": "Point", "coordinates": [103.00584757421396, -66.66442842218856]}}, {"type": "Feature", "properties": {"norad_id": 35667, "name": "COSMOS 2251 DEB", "group": "cosmos-2251-debris", "lat": -3.5703068504495743, "lon": -19.11468711694279, "alt_km": 685.1962808815033, "timestamp": "2025-12-02T08:59:33.111295+00:00", "meta": {"OBJECT_NAME": "COSMOS 2251 DEB", "OBJECT_ID": "1993-036APJ", "EPOCH": "2025-11-27T21:14:47.493024", "MEAN_MOTION": 14.59803731, "ECCENTRICITY": 0.0020703, "INCLINATION": 74.055, "RA_OF_ASC_NODE": 168.4138, "ARG_OF_PERICENTER": 231.0984, "MEAN_ANOMALY": 128.8335, "EPHEMERIS_TYPE": 0, "CLASSIFICATION_TYPE": "U", "NORAD_CAT_ID": 35667, "ELEMENT_SET_NO": 999, "REV_AT_EPOCH": 70586, "BSTAR": 0.00091618, "MEAN_MOTION_DOT": 4.364e-05, "MEAN_MOTION_DDOT": 0}, "tle": {"line1": "1 35667U 93036APJ 25331.88527191  .00004364  00000+0  91618-3 0  9997", "line2": "2 35667  74.0550 168.4138 0020703 231.0984 128.8335 14.59803731705867"}}, "geometry": {"type": "Point", "coordinates": [-19.11468711694279, -3.5703068504495743]}}, {"type": "Feature", "properties": {"norad_id": 35668, "name": "COSMOS 2251 DEB", "group": "cosmos-2251-debris", "lat": 30.526102591739104, "lon": 50.70364705191286, "alt_km": 733.4913554803443, "timestamp": "2025-12-02T08:59:33.111305+00:00", "meta": {"OBJECT_NAME": "COSMOS 2251 DEB", "OBJECT_ID": "1993-036APK", "EPOCH": "2025-12-02T00:07:07.979808", "MEAN_MOTION": 14.63930957, "ECCENTRICITY": 0.0082891, "INCLINATION": 74.0459, "RA_OF_ASC_NODE": 241.1242, "ARG_OF_PERICENTER": 348.7873, "MEAN_ANOMALY": 11.1444, "EPHEMERIS_TYPE": 0, "CLASSIFICATION_TYPE": "U", "NORAD_CAT_ID": 35668, "ELEMENT_SET_NO": 999, "REV_AT_EPOCH": 87490, "BSTAR": 0.00038125, "MEAN_MOTION_DOT": 2.064e-05, "MEAN_MOTION_DDOT": 0}, "tle": {"line1": "1 35668U 93036APK 25336.00495347  .00002064  00000+0  38125-3 0  9993", "line2": "2 35668  74.0459 241.1242 0082891 348.7873  11.1444 14.63930957874903"}}, "geometry": {"type": "Point", "coordinates": [50.70364705191286, 30.526102591739104]}}]}